{
    "data": [{
        "stations": [{
            "id": 1892,
            "name": "光达",
            "longitude": 113085170,
            "latitude": 28148031,
            "pinyin": "guangda"
        }, {
            "id": 1897,
            "name": "长沙火车南站",
            "longitude": 113064483,
            "latitude": 28146466,
            "pinyin": "zhangshahuochenanzhan"
        }, {
            "id": 1907,
            "name": "杜花路",
            "longitude": 113056471,
            "latitude": 28146351,
            "pinyin": "duhualu"
        }, {
            "id": 1893,
            "name": "沙湾公园",
            "longitude": 113044896,
            "latitude": 28157673,
            "pinyin": "shawangongyuan"
        }, {
            "id": 1904,
            "name": "长沙大道",
            "longitude": 113044575,
            "latitude": 28167975,
            "pinyin": "zhangshadadao"
        }, {
            "id": 1903,
            "name": "人民东路",
            "longitude": 113038688,
            "latitude": 28184251,
            "pinyin": "renmindonglu"
        }, {
            "id": 1905,
            "name": "万家丽广场",
            "longitude": 113030457,
            "latitude": 28191491,
            "pinyin": "wanjialiguangchang"
        }, {
            "id": 1896,
            "name": "锦泰广场",
            "longitude": 113017587,
            "latitude": 28191855,
            "pinyin": "jintaiguangchang"
        }, {
            "id": 1909,
            "name": "长沙火车站",
            "longitude": 113010987,
            "latitude": 28193633,
            "pinyin": "zhangshahuochezhan"
        }, {
            "id": 1901,
            "name": "袁家岭",
            "longitude": 113000458,
            "latitude": 28194532,
            "pinyin": "yuanjialing"
        }, {
            "id": 1908,
            "name": "迎宾路口",
            "longitude": 112992187,
            "latitude": 28194797,
            "pinyin": "yingbinlukou"
        }, {
            "id": 1898,
            "name": "芙蓉广场",
            "longitude": 112984667,
            "latitude": 28194797,
            "pinyin": "furongguangchang"
        }, {
            "id": 1900,
            "name": "五一广场",
            "longitude": 112976357,
            "latitude": 28195242,
            "pinyin": "wuyiguangchang"
        }, {
            "id": 1895,
            "name": "湘江中路",
            "longitude": 112969458,
            "latitude": 28195347,
            "pinyin": "xiangjiangzhonglu"
        }, {
            "id": 1894,
            "name": "橘子洲",
            "longitude": 112962520,
            "latitude": 28195601,
            "pinyin": "juzizhou"
        }, {
            "id": 1910,
            "name": "溁湾镇",
            "longitude": 112951436,
            "latitude": 28197614,
            "pinyin": "yingwanzhen"
        }, {
            "id": 1906,
            "name": "西湖公园",
            "longitude": 112939953,
            "latitude": 28202593,
            "pinyin": "xihugongyuan"
        }, {
            "id": 1899,
            "name": "金星路",
            "longitude": 112928603,
            "latitude": 28206047,
            "pinyin": "jinxinglu"
        }, {
            "id": 1902,
            "name": "望城坡",
            "longitude": 112914580,
            "latitude": 28207558,
            "pinyin": "wangchengpo"
        }],
        "name": "2号线",
        "lineId": 94
    }]
}
