{
    "data": [{
        "stations": [{
            "id": 1022,
            "name": "世纪城",
            "longitude": 104068921,
            "latitude": 30554849,
            "pinyin": "shijicheng"
        }, {
            "id": 1723,
            "name": "锦城广场",
            "longitude": 104066733,
            "latitude": 30567795,
            "pinyin": "jinchengguangchang"
        }, {
            "id": 1020,
            "name": "孵化园",
            "longitude": 104064327,
            "latitude": 30575655,
            "pinyin": "fuhuayuan"
        }, {
            "id": 1019,
            "name": "金融城",
            "longitude": 104064136,
            "latitude": 30582550,
            "pinyin": "jinrongcheng"
        }, {
            "id": 1018,
            "name": "高新",
            "longitude": 104063760,
            "latitude": 30594309,
            "pinyin": "gaoxin"
        }, {
            "id": 1017,
            "name": "火车南站",
            "longitude": 104067393,
            "latitude": 30605476,
            "pinyin": "huochenanzhan"
        }, {
            "id": 1016,
            "name": "桐梓林",
            "longitude": 104067115,
            "latitude": 30615321,
            "pinyin": "tongzilin"
        }, {
            "id": 1015,
            "name": "倪家桥",
            "longitude": 104066893,
            "latitude": 30624902,
            "pinyin": "nijiaqiao"
        }, {
            "id": 1014,
            "name": "省体育馆",
            "longitude": 104066593,
            "latitude": 30633172,
            "pinyin": "shengtiyuguan"
        }, {
            "id": 1013,
            "name": "华西坝",
            "longitude": 104066285,
            "latitude": 30642627,
            "pinyin": "huaxiba"
        }, {
            "id": 1012,
            "name": "锦江宾馆",
            "longitude": 104066042,
            "latitude": 30650183,
            "pinyin": "jinjiangbinguan"
        }, {
            "id": 1011,
            "name": "天府广场",
            "longitude": 104065898,
            "latitude": 30657473,
            "pinyin": "tianfuguangchang"
        }, {
            "id": 1010,
            "name": "骡马市",
            "longitude": 104065605,
            "latitude": 30666607,
            "pinyin": "luomashi"
        }, {
            "id": 1009,
            "name": "文殊院",
            "longitude": 104068056,
            "latitude": 30672582,
            "pinyin": "wenshuyuan"
        }, {
            "id": 1008,
            "name": "人民北路",
            "longitude": 104072942,
            "latitude": 30684524,
            "pinyin": "renminbeilu"
        }, {
            "id": 1007,
            "name": "火车北站",
            "longitude": 104073417,
            "latitude": 30695645,
            "pinyin": "huochebeizhan"
        }, {
            "id": 1006,
            "name": "升仙湖",
            "longitude": 104083924,
            "latitude": 30704441,
            "pinyin": "shengxianhu"
        }],
        "name": "1号线",
        "lineId": 62
    }, {
        "stations": [{
            "id": 1732,
            "name": "犀浦",
            "longitude": 103971431,
            "latitude": 30758173,
            "pinyin": "xipu"
        }, {
            "id": 1735,
            "name": "天河路",
            "longitude": 103976216,
            "latitude": 30745837,
            "pinyin": "tianhelu"
        }, {
            "id": 1728,
            "name": "百草路",
            "longitude": 103979378,
            "latitude": 30733066,
            "pinyin": "baicaolu"
        }, {
            "id": 1730,
            "name": "金周路",
            "longitude": 103996116,
            "latitude": 30721653,
            "pinyin": "jinzhoulu"
        }, {
            "id": 1727,
            "name": "金科北路",
            "longitude": 104006633,
            "latitude": 30720763,
            "pinyin": "jinkebeilu"
        }, {
            "id": 1724,
            "name": "迎宾大道",
            "longitude": 104013606,
            "latitude": 30713303,
            "pinyin": "yingbindadao"
        }, {
            "id": 1023,
            "name": "茶店子客运站",
            "longitude": 104013490,
            "latitude": 30705938,
            "pinyin": "chadianzikeyunzhan"
        }, {
            "id": 1024,
            "name": "羊犀立交",
            "longitude": 104012390,
            "latitude": 30694261,
            "pinyin": "yangxilijiao"
        }, {
            "id": 1025,
            "name": "一品天下",
            "longitude": 104019707,
            "latitude": 30689008,
            "pinyin": "yipintianxia"
        }, {
            "id": 1026,
            "name": "蜀汉路东",
            "longitude": 104028984,
            "latitude": 30682915,
            "pinyin": "shuhanludong"
        }, {
            "id": 1027,
            "name": "白果林",
            "longitude": 104033282,
            "latitude": 30673869,
            "pinyin": "baiguolin"
        }, {
            "id": 1028,
            "name": "中医大省医院",
            "longitude": 104040827,
            "latitude": 30666160,
            "pinyin": "zhongyidashengyiyuan"
        }, {
            "id": 1029,
            "name": "通惠门",
            "longitude": 104048505,
            "latitude": 30662096,
            "pinyin": "tonghuimen"
        }, {
            "id": 1030,
            "name": "人民公园",
            "longitude": 104056789,
            "latitude": 30659317,
            "pinyin": "renmingongyuan"
        }, {
            "id": 1031,
            "name": "天府广场",
            "longitude": 104065898,
            "latitude": 30657473,
            "pinyin": "tianfuguangchang"
        }, {
            "id": 1032,
            "name": "春熙路",
            "longitude": 104080070,
            "latitude": 30653321,
            "pinyin": "chunxilu"
        }, {
            "id": 1033,
            "name": "东门大桥",
            "longitude": 104086982,
            "latitude": 30648400,
            "pinyin": "dongmendaqiao"
        }, {
            "id": 1034,
            "name": "牛王庙",
            "longitude": 104094480,
            "latitude": 30644979,
            "pinyin": "niuwangmiao"
        }, {
            "id": 1035,
            "name": "牛市口",
            "longitude": 104107720,
            "latitude": 30637859,
            "pinyin": "niushikou"
        }, {
            "id": 1036,
            "name": "东大路",
            "longitude": 104112678,
            "latitude": 30633360,
            "pinyin": "dongdalu"
        }, {
            "id": 1037,
            "name": "塔子山公园",
            "longitude": 104122904,
            "latitude": 30629460,
            "pinyin": "tazishangongyuan"
        }, {
            "id": 1038,
            "name": "成都东客站",
            "longitude": 104139706,
            "latitude": 30628897,
            "pinyin": "chengdoudongkezhan"
        }, {
            "id": 1039,
            "name": "成渝立交",
            "longitude": 104147093,
            "latitude": 30624632,
            "pinyin": "chengyulijiao"
        }, {
            "id": 1040,
            "name": "惠王陵",
            "longitude": 104152355,
            "latitude": 30612304,
            "pinyin": "huiwangling"
        }, {
            "id": 1041,
            "name": "洪河",
            "longitude": 104157553,
            "latitude": 30604982,
            "pinyin": "honghe"
        }, {
            "id": 1042,
            "name": "成都行政学院",
            "longitude": 104171152,
            "latitude": 30596994,
            "pinyin": "chengdouxingzhengxueyuan"
        }, {
            "id": 1725,
            "name": "大面铺",
            "longitude": 104201456,
            "latitude": 30592515,
            "pinyin": "damianpu"
        }, {
            "id": 1734,
            "name": "连山坡",
            "longitude": 104212967,
            "latitude": 30587631,
            "pinyin": "lianshanpo"
        }, {
            "id": 1731,
            "name": "界牌",
            "longitude": 104225063,
            "latitude": 30582783,
            "pinyin": "jiepai"
        }, {
            "id": 1729,
            "name": "书房",
            "longitude": 104238200,
            "latitude": 30577314,
            "pinyin": "shufang"
        }, {
            "id": 1733,
            "name": "龙平路",
            "longitude": 104259376,
            "latitude": 30574197,
            "pinyin": "longpinglu"
        }, {
            "id": 1726,
            "name": "龙泉驿",
            "longitude": 104269142,
            "latitude": 30559858,
            "pinyin": "longquanyi"
        }],
        "name": "2号线",
        "lineId": 63
    }]
}
